NORAD_CAT_ID,OBJECT_NAME,OBJECT_TYPE,EPOCH,MEAN_MOTION,ECCENTRICITY,INCLINATION,RA_OF_ASC_NODE,ARG_OF_PERICENTER,MEAN_ANOMALY,BSTAR,MEAN_MOTION_DOT,MEAN_MOTION_DDOT,TLE_LINE0,TLE_LINE1,TLE_LINE2,SEMIMAJOR_AXIS,PERIOD,APOGEE,PERIGEE,DECAYED
53828.0,STARLINK-4760,PAYLOAD,2023-09-30 10:27:19,15.08847883,0.0001982,53.218,345.0199,120.4021,239.7167,0.00020608,2.994e-05,0.0,0 STARLINK-4760,1 53828U 22114L   23273.43564370  .00002994  00000-0  20608-3 0  9998,2 53828  53.2180 345.0199 0001982 120.4021 239.7167 15.08847883 57748,6917.856,95.437,541.092,538.35,0.0
53828.0,STARLINK-4760,PAYLOAD,2023-10-01 11:53:29,15.08847631,0.0001666,53.2179,340.2649,87.2025,272.9158,0.00021938,3.206e-05,0.0,0 STARLINK-4760,1 53828U 22114L   23274.49548554  .00003206  00000-0  21938-3 0  9995,2 53828  53.2179 340.2649 0001666  87.2025 272.9158 15.08847631 57904,6917.857,95.437,540.875,538.57,0.0
53828.0,STARLINK-4760,PAYLOAD,2023-10-01 21:25:49,15.08832259,0.0002172,53.2176,338.4796,87.2882,272.8359,9.5574e-05,1.233e-05,0.0,0 STARLINK-4760,1 53828U 22114L   23274.89293115  .00001233  00000-0  95574-4 0  9995,2 53828  53.2176 338.4796 0002172  87.2882 272.8359 15.08832259 58506,6917.904,95.438,541.272,538.266,0.0
53828.0,STARLINK-4760,PAYLOAD,2023-10-02 11:44:18,15.08825838,0.0001836,53.2176,335.8047,89.5737,270.5466,2.7099e-05,1.43e-06,0.0,0 STARLINK-4760,1 53828U 22114L   23275.48909749  .00000143  00000-0  27099-4 0  9994,2 53828  53.2176 335.8047 0001836  89.5737 270.5466 15.08825838 58055,6917.924,95.438,541.059,538.519,0.0
53828.0,STARLINK-4760,PAYLOAD,2023-10-03 03:38:09,15.08840575,0.000182,53.2179,332.8304,86.345,273.775,0.00038144,5.788e-05,0.0,0 STARLINK-4760,1 53828U 22114L   23276.15149822  .00005788  00000-0  38144-3 0  9999,2 53828  53.2179 332.8304 0001820  86.3450 273.7750 15.08840575 58158,6917.879,95.438,541.003,538.485,0.0
53828.0,STARLINK-4760,PAYLOAD,2023-10-03 11:35:04,15.0885579,0.0001532,53.2165,331.3431,94.3701,265.7467,0.00098808,0.00015479,0.0,0 STARLINK-4760,1 53828U 22114L   23276.48269564  .00015479  00000-0  98808-3 0  9992,2 53828  53.2165 331.3431 0001532  94.3701 265.7467 15.08855790 58742,6917.832,95.437,540.757,538.637,0.0
53828.0,STARLINK-4760,PAYLOAD,2023-10-04 09:50:28,15.08850121,0.0001697,53.2173,327.1798,87.0333,273.0854,0.00041652,6.349e-05,0.0,0 STARLINK-4760,1 53828U 22114L   23277.41005648  .00006349  00000-0  41652-3 0  9998,2 53828  53.2173 327.1798 0001697  87.0333 273.0854 15.08850121 58343,6917.849,95.437,540.888,538.54,0.0
53828.0,STARLINK-4760,PAYLOAD,2023-10-04 20:58:10,15.08848156,0.0001616,53.2162,325.0983,84.3595,275.7581,0.00034534,5.214e-05,0.0,0 STARLINK-4760,1 53828U 22114L   23277.87373583  .00005214  00000-0  34534-3 0  9995,2 53828  53.2162 325.0983 0001616  84.3595 275.7581 15.08848156 58953,6917.855,95.437,540.838,538.603,0.0
53828.0,STARLINK-4760,PAYLOAD,2023-10-05 03:19:43,15.08843241,0.0001763,53.2171,323.9095,86.6199,273.4995,0.00018283,2.623e-05,0.0,0 STARLINK-4760,1 53828U 22114L   23278.13869716  .00002623  00000-0  18283-3 0  9997,2 53828  53.2171 323.9095 0001763  86.6199 273.4995 15.08843241 58451,6917.87,95.437,540.955,538.516,0.0
53828.0,STARLINK-4760,PAYLOAD,2023-10-05 09:41:15,15.08850249,0.0001813,53.2175,322.7188,93.7781,266.3419,0.00020829,3.029e-05,0.0,0 STARLINK-4760,1 53828U 22114L   23278.40365388  .00003029  00000-0  20829-3 0  9993,2 53828  53.2175 322.7188 0001813  93.7781 266.3419 15.08850249 59030,6917.849,95.437,540.968,538.46,0.0
53828.0,STARLINK-4760,PAYLOAD,2023-10-06 09:32:02,15.08848529,0.0001516,53.2174,318.2588,93.4239,266.6926,0.00018796,2.705e-05,0.0,0 STARLINK-4760,1 53828U 22114L   23279.39725351  .00002705  00000-0  18796-3 0  9992,2 53828  53.2174 318.2588 0001516  93.4239 266.6926 15.08848529 58648,6917.854,95.437,540.768,538.671,0.0
53828.0,STARLINK-4760,PAYLOAD,2023-10-06 12:42:48,15.08851677,0.0001669,53.2167,317.664,93.5557,266.5626,0.00021653,3.161e-05,0.0,0 STARLINK-4760,1 53828U 22114L   23279.52973117  .00003161  00000-0  21653-3 0  9995,2 53828  53.2167 317.6640 0001669  93.5557 266.5626 15.08851677 59202,6917.845,95.437,540.864,538.555,0.0
53828.0,STARLINK-4760,PAYLOAD,2023-10-07 09:22:50,15.08839709,0.000168,53.2165,313.7954,91.4413,268.6771,-1.0421e-06,-3.05e-06,0.0,0 STARLINK-4760,1 53828U 22114L   23280.39085681 -.00000305  00000-0 -10421-5 0  9994,2 53828  53.2165 313.7954 0001680  91.4413 268.6771 15.08839709 58795,6917.881,95.438,540.908,538.584,0.0
53828.0,STARLINK-4760,PAYLOAD,2023-10-07 18:55:08,15.08838457,0.0001711,53.2169,312.0118,91.4823,268.6365,-1.7344e-05,-5.64e-06,0.0,0 STARLINK-4760,1 53828U 22114L   23280.78829800 -.00000564  00000-0 -17344-4 0  9993,2 53828  53.2169 312.0118 0001711  91.4823 268.6365 15.08838457 59398,6917.885,95.438,540.934,538.566,0.0
53828.0,STARLINK-4760,PAYLOAD,2023-10-08 10:49:00,15.08846085,0.0001649,53.2177,309.0416,95.145,264.973,0.00016487,2.337e-05,0.0,0 STARLINK-4760,1 53828U 22114L   23281.45069664  .00002337  00000-0  16487-3 0  9996,2 53828  53.2177 309.0416 0001649  95.1450 264.9730 15.08846085 59493,6917.862,95.437,540.868,538.586,0.0
53828.0,STARLINK-4760,PAYLOAD,2023-10-08 18:45:56,15.08841225,0.0001637,53.2168,307.5545,91.9879,268.13,2.4787e-05,1.06e-06,0.0,0 STARLINK-4760,1 53828U 22114L   23281.78189832  .00000106  00000-0  24787-4 0  9997,2 53828  53.2168 307.5545 0001637  91.9879 268.1300 15.08841225 59002,6917.877,95.437,540.874,538.609,0.0
53828.0,STARLINK-4760,PAYLOAD,2023-10-09 02:42:52,15.08833587,0.0001648,53.2174,306.067,87.6958,272.4223,4.1363e-05,3.7e-06,0.0,0 STARLINK-4760,1 53828U 22114L   23282.11310455  .00000370  00000-0  41363-4 0  9994,2 53828  53.2174 306.0670 0001648  87.6958 272.4223 15.08833587 59053,6917.9,95.438,540.905,538.625,0.0
53828.0,STARLINK-4760,PAYLOAD,2023-10-09 09:04:24,15.08837788,0.0001655,53.2185,304.8778,87.0898,273.0284,0.00011516,1.545e-05,0.0,0 STARLINK-4760,1 53828U 22114L   23282.37806488  .00001545  00000-0  11516-3 0  9999,2 53828  53.2185 304.8778 0001655  87.0898 273.0284 15.08837788 59630,6917.887,95.438,540.897,538.607,0.0
53828.0,STARLINK-4760,PAYLOAD,2023-10-10 08:55:11,15.08849375,0.00016,53.2172,300.4164,95.0245,265.093,0.00020396,2.96e-05,0.0,0 STARLINK-4760,1 53828U 22114L   23283.37165787  .00002960  00000-0  20396-3 0  9998,2 53828  53.2172 300.4164 0001600  95.0245 265.0930 15.08849375 59243,6917.852,95.437,540.824,538.61,0.0
53828.0,STARLINK-4760,PAYLOAD,2023-10-10 18:27:30,15.08844843,0.0001629,53.2169,298.6325,83.9296,276.1882,6.3417e-05,7.22e-06,0.0,0 STARLINK-4760,1 53828U 22114L   23283.76910051  .00000722  00000-0  63417-4 0  9999,2 53828  53.2169 298.6325 0001629  83.9296 276.1882 15.08844843 59849,6917.866,95.437,540.858,538.604,0.0
53828.0,STARLINK-4760,PAYLOAD,2023-10-11 08:45:58,15.08844312,0.000153,53.2174,295.9551,94.2807,265.836,0.00010173,1.332e-05,0.0,0 STARLINK-4760,1 53828U 22114L   23284.36526152  .00001332  00000-0  10173-3 0  9999,2 53828  53.2174 295.9551 0001530  94.2807 265.8360 15.08844312 59937,6917.867,95.437,540.791,538.674,0.0
53828.0,STARLINK-4760,PAYLOAD,2023-10-11 18:18:17,15.08842773,0.0001404,53.2169,294.1717,90.0002,270.1151,4.9697e-05,5.03e-06,0.0,0 STARLINK-4760,1 53828U 22114L   23284.76270251  .00000503  00000-0  49697-4 0  9992,2 53828  53.2169 294.1717 0001404  90.0002 270.1151 15.08842773 59450,6917.872,95.437,540.708,538.766,0.0
53828.0,STARLINK-4760,PAYLOAD,2023-10-12 07:01:22,15.0884334,0.0001451,53.2175,291.7921,100.6615,259.4541,1.0365e-05,-1.23e-06,0.0,0 STARLINK-4760,1 53828U 22114L   23285.29262384 -.00000123  00000-0  10365-4 0  9998,2 53828  53.2175 291.7921 0001451 100.6615 259.4541 15.08843340 60071,6917.87,95.437,540.739,538.731,0.0
53828.0,STARLINK-4760,PAYLOAD,2023-10-12 18:09:04,15.08843705,0.0001406,53.2171,289.7103,103.509,256.6059,-3.0804e-05,-7.78e-06,0.0,0 STARLINK-4760,1 53828U 22114L   23285.75630364 -.00000778  00000-0 -30804-4 0  9993,2 53828  53.2171 289.7103 0001406 103.5090 256.6059 15.08843705 60141,6917.869,95.437,540.707,538.761,0.0
53828.0,STARLINK-4760,PAYLOAD,2023-10-13 03:41:23,15.08836938,0.000152,53.2167,287.9264,96.1232,263.9933,7.545e-05,9.13e-06,0.0,0 STARLINK-4760,1 53828U 22114L   23286.15374771  .00000913  00000-0  75450-4 0  9990,2 53828  53.2167 287.9264 0001520  96.1232 263.9933 15.08836938 59663,6917.89,95.438,540.806,538.703,0.0
53828.0,STARLINK-4760,PAYLOAD,2023-10-13 06:52:09,15.08839037,0.0001487,53.2172,287.3323,93.1831,266.9332,0.00010935,1.453e-05,0.0,0 STARLINK-4760,1 53828U 22114L   23286.28622638  .00001453  00000-0  10935-3 0  9998,2 53828  53.2172 287.3323 0001487  93.1831 266.9332 15.08839037 60226,6917.883,95.438,540.777,538.72,0.0
53828.0,STARLINK-4760,PAYLOAD,2023-10-14 05:07:33,15.08843883,0.0001571,53.2171,283.1694,94.7325,265.3847,0.0001588,2.24e-05,0.0,0 STARLINK-4760,1 53828U 22114L   23287.21358359  .00002240  00000-0  15880-3 0  9997,2 53828  53.2171 283.1694 0001571  94.7325 265.3847 15.08843883 59821,6917.869,95.437,540.82,538.647,0.0
53828.0,STARLINK-4760,PAYLOAD,2023-10-14 06:42:56,15.08845303,0.0001401,53.2176,282.8715,98.0967,262.0184,0.00023597,3.47e-05,0.0,0 STARLINK-4760,1 53828U 22114L   23287.27982126  .00003470  00000-0  23597-3 0  9998,2 53828  53.2176 282.8715 0001401  98.0967 262.0184 15.08845303 60376,6917.864,95.437,540.698,538.76,0.0
53828.0,STARLINK-4760,PAYLOAD,2023-10-15 04:58:21,15.08824426,0.0001535,53.2167,278.7093,92.9823,267.1345,-0.00013617,-2.454e-05,0.0,0 STARLINK-4760,1 53828U 22114L   23288.20719835 -.00002454  00000-0 -13617-3 0  9992,2 53828  53.2167 278.7093 0001535  92.9823 267.1345 15.08824426 59973,6917.928,95.439,540.855,538.731,0.0
53828.0,STARLINK-4760,PAYLOAD,2023-10-15 06:33:44,15.08827531,0.0001527,53.2165,278.4125,94.8436,265.2731,-8.745e-05,-1.679e-05,0.0,0 STARLINK-4760,1 53828U 22114L   23288.27343717 -.00001679  00000-0 -87450-4 0  9996,2 53828  53.2165 278.4125 0001527  94.8436 265.2731 15.08827531 60527,6917.919,95.438,540.84,538.727,0.0
